[Satellite]
VERSION=1.1
NAME=SYRACUSE 3A
NICKNAME=SYRACUSE 3A
TLE1=1 28885U 05041B   15054.13733828  .00000104  00000-0  00000+0 0  9995
TLE2=2 28885   0.0180 100.4111 0002443 225.3916 283.3056  1.00273293 34349
